QIANFAN-81              
1 63167U 25046J   25334.56482808  .00000121  00000+0  16837-3 0  9999
2 63167  88.9754 321.1330 0015440 149.5231 210.6820 13.50998344 45844
QIANFAN-82              
1 63168U 25046K   25334.59864128  .00000095  00000+0  12822-3 0  9992
2 63168  88.9754 321.1733 0013364 155.9400 204.2378 13.50972362 45832
QIANFAN-83              
1 63169U 25046L   25334.57681338  .00000071  00000+0  75685-4 0  9992
2 63169  88.9755 320.9758 0015074 143.2755 216.9438 13.61970531 45948
QIANFAN-84              
1 63170U 25046M   25334.55248177 -.00000070  00000+0 -12674-3 0  9991
2 63170  88.9750 321.3110 0016392 154.3150 205.8819 13.50984830 45752
QIANFAN-85              
1 63171U 25046N   25334.54914300  .00000134  00000+0  18817-3 0  9993
2 63171  88.9754 321.1829 0013745 155.0967 205.0850 13.50972362 45827
QIANFAN-86              
1 63172U 25046P   25334.55747158  .00000125  00000+0  17489-3 0  9994
2 63172  88.9756 321.0439 0011516 157.8213 202.3438 13.50972499 45906
QIANFAN-87              
1 63173U 25046Q   25334.60285051  .00000047  00000+0  54035-4 0  9992
2 63173  88.9752 321.1514 0012305 153.7036 206.4743 13.50971412 45844
QIANFAN-88              
1 63174U 25046R   25334.54516937  .00000096  00000+0  12937-3 0  9994
2 63174  88.9755 321.1115 0012455 161.7649 198.3952 13.50977104 45867
